[{"OBJECT_NAME":"STARLINK-4455","OBJECT_ID":"2022-099AM","EPOCH":"2026-03-09T22:26:49.444800","MEAN_MOTION":15.05645126,"ECCENTRICITY":0.00010873,"INCLINATION":97.6034,"RA_OF_ASC_NODE":191.5471,"ARG_OF_PERICENTER":99.63,"MEAN_ANOMALY":260.505,"EPHEMERIS_TYPE":0,"CLASSIFICATION_TYPE":"U","NORAD_CAT_ID":53500,"ELEMENT_SET_NO":999,"REV_AT_EPOCH":19609,"BSTAR":2.2406257e-5,"MEAN_MOTION_DOT":2.63e-6,"MEAN_MOTION_DDOT":0},{"OBJECT_NAME":"KUIPER-00139","OBJECT_ID":"2025-217D","EPOCH":"2026-03-09T07:26:02.378400","MEAN_MOTION":15.01890214,"ECCENTRICITY":0.00071199,"INCLINATION":51.8865,"RA_OF_ASC_NODE":35.54,"ARG_OF_PERICENTER":318.901,"MEAN_ANOMALY":41.1425,"EPHEMERIS_TYPE":0,"CLASSIFICATION_TYPE":"U","NORAD_CAT_ID":65765,"ELEMENT_SET_NO":999,"REV_AT_EPOCH":2495,"BSTAR":0.00087196011,"MEAN_MOTION_DOT":0.00011274,"MEAN_MOTION_DDOT":0}]
